[{"OBJECT_NAME":"PROPCUBE 3","OBJECT_ID":"2015-058K","EPOCH":"2026-03-09T17:34:06.780288","MEAN_MOTION":14.93528956,"ECCENTRICITY":0.01235273,"INCLINATION":64.7688,"RA_OF_ASC_NODE":203.0958,"ARG_OF_PERICENTER":99.6156,"MEAN_ANOMALY":261.8939,"EPHEMERIS_TYPE":0,"CLASSIFICATION_TYPE":"U","NORAD_CAT_ID":40973,"ELEMENT_SET_NO":999,"REV_AT_EPOCH":9994,"BSTAR":0.00046586011,"MEAN_MOTION_DOT":5.546e-5,"MEAN_MOTION_DDOT":0},{"OBJECT_NAME":"STARLINK-34437","OBJECT_ID":"2025-126C","EPOCH":"2026-03-09T23:34:18.023520","MEAN_MOTION":14.98330455,"ECCENTRICITY":0.00030023,"INCLINATION":70.0035,"RA_OF_ASC_NODE":33.8073,"ARG_OF_PERICENTER":264.1696,"MEAN_ANOMALY":95.9121,"EPHEMERIS_TYPE":0,"CLASSIFICATION_TYPE":"U","NORAD_CAT_ID":64346,"ELEMENT_SET_NO":999,"REV_AT_EPOCH":4072,"BSTAR":-0.00016943203,"MEAN_MOTION_DOT":-2.114e-5,"MEAN_MOTION_DDOT":0}]
